{
    "links": {
        "self": "http://www.neowsapp.com/rest/v1/neo/3884102?api_key=iIulBulltgU6a56xZRHN4H3l9WmuAYTsLGpBGhQ2"
    },
    "id": "3884102",
    "neo_reference_id": "3884102",
    "name": "(2019 UD10)",
    "designation": "2019 UD10",
    "nasa_jpl_url": "http://ssd.jpl.nasa.gov/sbdb.cgi?sstr=3884102",
    "absolute_magnitude_h": 28.2,
    "estimated_diameter": {
        "kilometers": {
            "estimated_diameter_min": 0.0060891262,
            "estimated_diameter_max": 0.0136157002
        },
        "meters": {
            "estimated_diameter_min": 6.0891262211,
            "estimated_diameter_max": 13.6157001539
        },
        "miles": {
            "estimated_diameter_min": 0.0037836064,
            "estimated_diameter_max": 0.0084604012
        },
        "feet": {
            "estimated_diameter_min": 19.9774488711,
            "estimated_diameter_max": 44.6709336928
        }
    },
    "is_potentially_hazardous_asteroid": false,
    "close_approach_data": [
        {
            "close_approach_date": "2019-10-27",
            "close_approach_date_full": "2019-Oct-27 07:00",
            "epoch_date_close_approach": 1572159600000,
            "relative_velocity": {
                "kilometers_per_second": "12.242570804",
                "kilometers_per_hour": "44073.2548944374",
                "miles_per_hour": "27385.4066314909"
            },
            "miss_distance": {
                "astronomical": "0.0031040066",
                "lunar": "1.2074585674",
                "kilometers": "464352.775825942",
                "miles": "288535.4353323196"
            },
            "orbiting_body": "Moon"
        },
        {
            "close_approach_date": "2019-10-27",
            "close_approach_date_full": "2019-Oct-27 10:08",
            "epoch_date_close_approach": 1572170880000,
            "relative_velocity": {
                "kilometers_per_second": "11.5296030863",
                "kilometers_per_hour": "41506.5711107232",
                "miles_per_hour": "25790.5691437713"
            },
            "miss_distance": {
                "astronomical": "0.0011210017",
                "lunar": "0.4360696613",
                "kilometers": "167699.466586379",
                "miles": "104203.6165508702"
            },
            "orbiting_body": "Earth"
        }
    ],
    "orbital_data": {
        "orbit_id": "1",
        "orbit_determination_date": "2019-10-28 13:42:04",
        "first_observation_date": "2019-10-28",
        "last_observation_date": "2019-10-28",
        "data_arc_in_days": null,
        "observations_used": 15,
        "orbit_uncertainty": "8",
        "minimum_orbit_intersection": ".00107655",
        "jupiter_tisserand_invariant": "3.343",
        "epoch_osculation": "2458784.5",
        "eccentricity": ".5765875708413093",
        "semi_major_axis": "2.278829075456515",
        "inclination": "11.62405036540011",
        "ascending_node_longitude": "33.68140126284896",
        "orbital_period": "1256.51030526952",
        "perihelion_distance": ".9648845544764962",
        "perihelion_argument": "336.4097786131588",
        "aphelion_distance": "3.592773596436533",
        "perihelion_time": "2458765.675424571709",
        "mean_anomaly": "5.393387643351744",
        "mean_motion": ".2865077974213512",
        "equinox": "J2000",
        "orbit_class": {
            "orbit_class_type": "APO",
            "orbit_class_description": "Near-Earth asteroid orbits which cross the Earth’s orbit similar to that of 1862 Apollo",
            "orbit_class_range": "a (semi-major axis) > 1.0 AU; q (perihelion) < 1.017 AU"
        }
    },
    "is_sentry_object": false
}